{
  "type": "FeatureCollection",
  "features": [
    {
      "type": "Feature",
      "properties": {
        "norad_id": 31776,
        "name": "FENGYUN 1C DEB",
        "group": "fengyun-1c-debris",
        "lat": -76.64498972909423,
        "lon": 82.32222034789415,
        "alt_km": 826.5844500790754,
        "timestamp": "2025-12-06T09:34:17.197726+00:00",
        "meta_object_name": "FENGYUN 1C DEB",
        "meta_object_id": "1999-025CGB",
        "meta_epoch": "2025-12-01T15:32:26.394144",
        "meta_mean_motion": 14.18453446,
        "meta_eccentricity": 0.00544701,
        "meta_inclination": 99.0762,
        "meta_ra_of_asc_node": 35.1395,
        "meta_arg_of_pericenter": 7.0694,
        "meta_mean_anomaly": 144.5464,
        "meta_ephemeris_type": 0,
        "meta_classification_type": "U",
        "meta_norad_cat_id": 31776,
        "meta_element_set_no": 999,
        "meta_rev_at_epoch": 94723,
        "meta_bstar": 0.0013902785,
        "meta_mean_motion_dot": 2.868e-05,
        "meta_mean_motion_ddot": 0,
        "tle_line1": "1 31776U 99025CGB 25335.64752771  .00002868  00000+0  13903-2 0  9997",
        "tle_line2": "2 31776  99.0762  35.1395 0054470   7.0694 144.5464 14.18453446947234"
      },
      "geometry": {
        "type": "Point",
        "coordinates": [
          82.32222034789415,
          -76.64498972909423
        ]
      }
    },
    {
      "type": "Feature",
      "properties": {
        "norad_id": 31779,
        "name": "FENGYUN 1C DEB",
        "group": "fengyun-1c-debris",
        "lat": 54.041154394084174,
        "lon": -113.24661796630596,
        "alt_km": 873.655581604763,
        "timestamp": "2025-12-06T09:34:17.197736+00:00",
        "meta_object_name": "FENGYUN 1C DEB",
        "meta_object_id": "1999-025CGE",
        "meta_epoch": "2025-12-05T13:18:58.519008",
        "meta_mean_motion": 14.41571273,
        "meta_eccentricity": 0.02129967,
        "meta_inclination": 99.2975,
        "meta_ra_of_asc_node": 258.8857,
        "meta_arg_of_pericenter": 204.0278,
        "meta_mean_anomaly": 155.0856,
        "meta_ephemeris_type": 0,
        "meta_classification_type": "U",
        "meta_norad_cat_id": 31779,
        "meta_element_set_no": 999,
        "meta_rev_at_epoch": 96906,
        "meta_bstar": 0.00050937089,
        "meta_mean_motion_dot": 2.11e-05,
        "meta_mean_motion_ddot": 0,
        "tle_line1": "1 31779U 99025CGE 25339.55484397  .00002110  00000+0  50937-3 0  9999",
        "tle_line2": "2 31779  99.2975 258.8857 0212996 204.0278 155.0856 14.41571273969060"
      },
      "geometry": {
        "type": "Point",
        "coordinates": [
          -113.24661796630596,
          54.041154394084174
        ]
      }
    },
    {
      "type": "Feature",
      "properties": {
        "norad_id": 31780,
        "name": "FENGYUN 1C DEB",
        "group": "fengyun-1c-debris",
        "lat": 75.36420858740837,
        "lon": -9.04673013247865,
        "alt_km": 561.8235374942351,
        "timestamp": "2025-12-06T09:34:17.197746+00:00",
        "meta_object_name": "FENGYUN 1C DEB",
        "meta_object_id": "1999-025CGF",
        "meta_epoch": "2025-12-04T16:16:09.846336",
        "meta_mean_motion": 14.69489035,
        "meta_eccentricity": 0.015109,
        "meta_inclination": 99.2854,
        "meta_ra_of_asc_node": 130.207,
        "meta_arg_of_pericenter": 77.85,
        "meta_mean_anomaly": 283.9582,
        "meta_ephemeris_type": 0,
        "meta_classification_type": "U",
        "meta_norad_cat_id": 31780,
        "meta_element_set_no": 999,
        "meta_rev_at_epoch": 98379,
        "meta_bstar": 0.00062815,
        "meta_mean_motion_dot": 4.368e-05,
        "meta_mean_motion_ddot": 0,
        "tle_line1": "1 31780U 99025CGF 25338.67789174  .00004368  00000+0  62815-3 0  9999",
        "tle_line2": "2 31780  99.2854 130.2070 0151090  77.8500 283.9582 14.69489035983796"
      },
      "geometry": {
        "type": "Point",
        "coordinates": [
          -9.04673013247865,
          75.36420858740837
        ]
      }
    },
    {
      "type": "Feature",
      "properties": {
        "norad_id": 31781,
        "name": "FENGYUN 1C DEB",
        "group": "fengyun-1c-debris",
        "lat": 76.98808216630904,
        "lon": 104.49115866117548,
        "alt_km": 968.7799150970077,
        "timestamp": "2025-12-06T09:34:17.197756+00:00",
        "meta_object_name": "FENGYUN 1C DEB",
        "meta_object_id": "1999-025CGG",
        "meta_epoch": "2025-12-05T17:53:16.013472",
        "meta_mean_motion": 14.12811066,
        "meta_eccentricity": 0.02036637,
        "meta_inclination": 99.4972,
        "meta_ra_of_asc_node": 150.2166,
        "meta_arg_of_pericenter": 293.167,
        "meta_mean_anomaly": 64.8161,
        "meta_ephemeris_type": 0,
        "meta_classification_type": "U",
        "meta_norad_cat_id": 31781,
        "meta_element_set_no": 999,
        "meta_rev_at_epoch": 68249,
        "meta_bstar": 0.0060418808,
        "meta_mean_motion_dot": 0.00013645,
        "meta_mean_motion_ddot": 0,
        "tle_line1": "1 31781U 99025CGG 25339.74532423  .00013645  00000+0  60419-2 0  9997",
        "tle_line2": "2 31781  99.4972 150.2166 0203663 293.1670  64.8161 14.12811066682496"
      },
      "geometry": {
        "type": "Point",
        "coordinates": [
          104.49115866117548,
          76.98808216630904
        ]
      }
    },
    {
      "type": "Feature",
      "properties": {
        "norad_id": 31782,
        "name": "FENGYUN 1C DEB",
        "group": "fengyun-1c-debris",
        "lat": 9.062402501201639,
        "lon": 139.94374229333945,
        "alt_km": 716.0049072762695,
        "timestamp": "2025-12-06T09:34:17.197767+00:00",
        "meta_object_name": "FENGYUN 1C DEB",
        "meta_object_id": "1999-025CGH",
        "meta_epoch": "2025-12-05T22:31:18.400224",
        "meta_mean_motion": 14.36210758,
        "meta_eccentricity": 0.00797978,
        "meta_inclination": 98.904,
        "meta_ra_of_asc_node": 140.901,
        "meta_arg_of_pericenter": 17.0263,
        "meta_mean_anomaly": 133.2697,
        "meta_ephemeris_type": 0,
        "meta_classification_type": "U",
        "meta_norad_cat_id": 31782,
        "meta_element_set_no": 999,
        "meta_rev_at_epoch": 96593,
        "meta_bstar": 0.00060247171,
        "meta_mean_motion_dot": 1.775e-05,
        "meta_mean_motion_ddot": 0,
        "tle_line1": "1 31782U 99025CGH 25339.93840741  .00001775  00000+0  60247-3 0  9995",
        "tle_line2": "2 31782  98.9040 140.9010 0079797  17.0263 133.2697 14.36210758965936"
      },
      "geometry": {
        "type": "Point",
        "coordinates": [
          139.94374229333945,
          9.062402501201639
        ]
      }
    },
    {
      "type": "Feature",
      "properties": {
        "norad_id": 31783,
        "name": "FENGYUN 1C DEB",
        "group": "fengyun-1c-debris",
        "lat": 5.656786304069589,
        "lon": 170.20360815548975,
        "alt_km": 886.2094619633426,
        "timestamp": "2025-12-06T09:34:17.197777+00:00",
        "meta_object_name": "FENGYUN 1C DEB",
        "meta_object_id": "1999-025CGJ",
        "meta_epoch": "2025-12-04T07:23:54.597120",
        "meta_mean_motion": 14.08804489,
        "meta_eccentricity": 0.0104591,
        "meta_inclination": 98.6051,
        "meta_ra_of_asc_node": 347.3483,
        "meta_arg_of_pericenter": 73.7092,
        "meta_mean_anomaly": 302.6242,
        "meta_ephemeris_type": 0,
        "meta_classification_type": "U",
        "meta_norad_cat_id": 31783,
        "meta_element_set_no": 999,
        "meta_rev_at_epoch": 89102,
        "meta_bstar": 0.00098542,
        "meta_mean_motion_dot": 1.748e-05,
        "meta_mean_motion_ddot": 0,
        "tle_line1": "1 31783U 99025CGJ 25338.30827080  .00001748  00000+0  98542-3 0  9996",
        "tle_line2": "2 31783  98.6051 347.3483 0104591  73.7092 302.6242 14.08804489891028"
      },
      "geometry": {
        "type": "Point",
        "coordinates": [
          170.20360815548975,
          5.656786304069589
        ]
      }
    },
    {
      "type": "Feature",
      "properties": {
        "norad_id": 31788,
        "name": "FENGYUN 1C DEB",
        "group": "fengyun-1c-debris",
        "lat": -27.044058241766216,
        "lon": -64.74426794718062,
        "alt_km": 1181.250604960538,
        "timestamp": "2025-12-06T09:34:17.197787+00:00",
        "meta_object_name": "FENGYUN 1C DEB",
        "meta_object_id": "1999-025CGP",
        "meta_epoch": "2025-12-02T15:26:16.495008",
        "meta_mean_motion": 13.44999859,
        "meta_eccentricity": 0.04642981,
        "meta_inclination": 102.556,
        "meta_ra_of_asc_node": 117.0923,
        "meta_arg_of_pericenter": 109.1347,
        "meta_mean_anomaly": 277.0195,
        "meta_ephemeris_type": 0,
        "meta_classification_type": "U",
        "meta_norad_cat_id": 31788,
        "meta_element_set_no": 999,
        "meta_rev_at_epoch": 90469,
        "meta_bstar": 0.0032555531,
        "meta_mean_motion_dot": 3.616e-05,
        "meta_mean_motion_ddot": 0,
        "tle_line1": "1 31788U 99025CGP 25336.64324647  .00003616  00000+0  32556-2 0  9995",
        "tle_line2": "2 31788 102.5560 117.0923 0464298 109.1347 277.0195 13.44999859904699"
      },
      "geometry": {
        "type": "Point",
        "coordinates": [
          -64.74426794718062,
          -27.044058241766216
        ]
      }
    }
  ]
}